[{"OBJECT_NAME":"LEMUR-2-JK0903EM1407","OBJECT_ID":"2023-174CJ","EPOCH":"2026-03-03T17:16:26.398272","MEAN_MOTION":15.46300408,"ECCENTRICITY":0.000624,"INCLINATION":97.3929,"RA_OF_ASC_NODE":150.6777,"ARG_OF_PERICENTER":135.4353,"MEAN_ANOMALY":224.7399,"EPHEMERIS_TYPE":0,"CLASSIFICATION_TYPE":"U","NORAD_CAT_ID":58336,"ELEMENT_SET_NO":999,"REV_AT_EPOCH":12940,"BSTAR":0.00067615,"MEAN_MOTION_DOT":0.00033351,"MEAN_MOTION_DDOT":0},{"OBJECT_NAME":"LEMUR-2-MJR092620","OBJECT_ID":"2023-174CN","EPOCH":"2026-03-03T17:34:39.404928","MEAN_MOTION":15.41938944,"ECCENTRICITY":0.0008075,"INCLINATION":97.4001,"RA_OF_ASC_NODE":151.0783,"ARG_OF_PERICENTER":133.2007,"MEAN_ANOMALY":226.9916,"EPHEMERIS_TYPE":0,"CLASSIFICATION_TYPE":"U","NORAD_CAT_ID":58340,"ELEMENT_SET_NO":999,"REV_AT_EPOCH":12938,"BSTAR":0.00039439,"MEAN_MOTION_DOT":0.00016723,"MEAN_MOTION_DDOT":0},{"OBJECT_NAME":"LEMUR-2-NIMBUS2000","OBJECT_ID":"2024-022A","EPOCH":"2026-03-03T13:41:07.387296","MEAN_MOTION":15.36492065,"ECCENTRICITY":0.0010399,"INCLINATION":97.423,"RA_OF_ASC_NODE":271.4279,"ARG_OF_PERICENTER":133.2157,"MEAN_ANOMALY":226.9957,"EPHEMERIS_TYPE":0,"CLASSIFICATION_TYPE":"U","NORAD_CAT_ID":58899,"ELEMENT_SET_NO":999,"REV_AT_EPOCH":11603,"BSTAR":0.00061825,"MEAN_MOTION_DOT":0.00022008,"MEAN_MOTION_DDOT":0},{"OBJECT_NAME":"LEMUR-2-VALHALLA","OBJECT_ID":"2024-022B","EPOCH":"2026-03-03T13:09:44.299296","MEAN_MOTION":15.36254493,"ECCENTRICITY":0.0011018,"INCLINATION":97.4228,"RA_OF_ASC_NODE":271.4419,"ARG_OF_PERICENTER":129.171,"MEAN_ANOMALY":231.0514,"EPHEMERIS_TYPE":0,"CLASSIFICATION_TYPE":"U","NORAD_CAT_ID":58900,"ELEMENT_SET_NO":999,"REV_AT_EPOCH":11603,"BSTAR":0.00060923,"MEAN_MOTION_DOT":0.00021524,"MEAN_MOTION_DDOT":0},{"OBJECT_NAME":"LEMUR-2-OBA-NI-JESU","OBJECT_ID":"2024-022D","EPOCH":"2026-03-03T12:40:05.402784","MEAN_MOTION":15.63960727,"ECCENTRICITY":0.0005198,"INCLINATION":97.407,"RA_OF_ASC_NODE":280.2755,"ARG_OF_PERICENTER":88.2727,"MEAN_ANOMALY":271.9127,"EPHEMERIS_TYPE":0,"CLASSIFICATION_TYPE":"U","NORAD_CAT_ID":58902,"ELEMENT_SET_NO":999,"REV_AT_EPOCH":11663,"BSTAR":0.001209,"MEAN_MOTION_DOT":0.00115127,"MEAN_MOTION_DDOT":0},{"OBJECT_NAME":"LEMUR-2-CAEL","OBJECT_ID":"2024-022E","EPOCH":"2026-03-03T12:15:15.075360","MEAN_MOTION":15.37386205,"ECCENTRICITY":0.00094054,"INCLINATION":97.4214,"RA_OF_ASC_NODE":272.1675,"ARG_OF_PERICENTER":113.5647,"MEAN_ANOMALY":246.6587,"EPHEMERIS_TYPE":0,"CLASSIFICATION_TYPE":"U","NORAD_CAT_ID":58903,"ELEMENT_SET_NO":999,"REV_AT_EPOCH":11608,"BSTAR":0.00057205016,"MEAN_MOTION_DOT":0.00020943,"MEAN_MOTION_DDOT":0},{"OBJECT_NAME":"LEMUR-2-JOHNNYTRUONG","OBJECT_ID":"2024-043BA","EPOCH":"2026-03-03T09:38:20.171904","MEAN_MOTION":15.52544079,"ECCENTRICITY":0.00053172,"INCLINATION":97.5247,"RA_OF_ASC_NODE":208.2638,"ARG_OF_PERICENTER":206.3385,"MEAN_ANOMALY":153.7598,"EPHEMERIS_TYPE":0,"CLASSIFICATION_TYPE":"U","NORAD_CAT_ID":59146,"ELEMENT_SET_NO":999,"REV_AT_EPOCH":11158,"BSTAR":0.00066798031,"MEAN_MOTION_DOT":0.00041047,"MEAN_MOTION_DDOT":0},{"OBJECT_NAME":"LEMUR-2-TOMATOKECHUP","OBJECT_ID":"2024-149D","EPOCH":"2026-03-03T18:07:06.820320","MEAN_MOTION":15.33567823,"ECCENTRICITY":9.34e-5,"INCLINATION":97.3858,"RA_OF_ASC_NODE":144.6993,"ARG_OF_PERICENTER":204.1627,"MEAN_ANOMALY":155.9571,"EPHEMERIS_TYPE":0,"CLASSIFICATION_TYPE":"U","NORAD_CAT_ID":60471,"ELEMENT_SET_NO":999,"REV_AT_EPOCH":8599,"BSTAR":0.00049427,"MEAN_MOTION_DOT":0.00015976,"MEAN_MOTION_DDOT":0},{"OBJECT_NAME":"LEMUR-2-STELLA","OBJECT_ID":"2024-149BT","EPOCH":"2026-03-03T18:14:28.923072","MEAN_MOTION":15.09265599,"ECCENTRICITY":0.0001607,"INCLINATION":97.6789,"RA_OF_ASC_NODE":144.9387,"ARG_OF_PERICENTER":95.1253,"MEAN_ANOMALY":265.0159,"EPHEMERIS_TYPE":0,"CLASSIFICATION_TYPE":"U","NORAD_CAT_ID":60533,"ELEMENT_SET_NO":999,"REV_AT_EPOCH":8458,"BSTAR":0.0010679,"MEAN_MOTION_DOT":0.00016968,"MEAN_MOTION_DDOT":0},{"OBJECT_NAME":"LEMUR-2-MARHISYAM","OBJECT_ID":"2024-149BW","EPOCH":"2026-03-03T16:56:17.887776","MEAN_MOTION":15.08815013,"ECCENTRICITY":0.0003259,"INCLINATION":97.6929,"RA_OF_ASC_NODE":145.2179,"ARG_OF_PERICENTER":121.7841,"MEAN_ANOMALY":238.3705,"EPHEMERIS_TYPE":0,"CLASSIFICATION_TYPE":"U","NORAD_CAT_ID":60536,"ELEMENT_SET_NO":999,"REV_AT_EPOCH":8456,"BSTAR":0.0010718,"MEAN_MOTION_DOT":0.00016823,"MEAN_MOTION_DDOT":0},{"OBJECT_NAME":"LEMUR-2-AHMED-ASRAR","OBJECT_ID":"2024-149DN","EPOCH":"2026-03-03T15:17:37.233600","MEAN_MOTION":15.10178871,"ECCENTRICITY":0.0002145,"INCLINATION":97.7044,"RA_OF_ASC_NODE":146.8537,"ARG_OF_PERICENTER":39.0329,"MEAN_ANOMALY":321.1054,"EPHEMERIS_TYPE":0,"CLASSIFICATION_TYPE":"U","NORAD_CAT_ID":60576,"ELEMENT_SET_NO":999,"REV_AT_EPOCH":8462,"BSTAR":0.00099259,"MEAN_MOTION_DOT":0.00016167,"MEAN_MOTION_DDOT":0},{"OBJECT_NAME":"LEMUR-2-LLOYD","OBJECT_ID":"2024-149DP","EPOCH":"2026-03-03T18:00:04.618080","MEAN_MOTION":15.07000673,"ECCENTRICITY":0.0005221,"INCLINATION":97.6809,"RA_OF_ASC_NODE":143.9805,"ARG_OF_PERICENTER":138.9222,"MEAN_ANOMALY":221.2399,"EPHEMERIS_TYPE":0,"CLASSIFICATION_TYPE":"U","NORAD_CAT_ID":60577,"ELEMENT_SET_NO":999,"REV_AT_EPOCH":8450,"BSTAR":0.00097857,"MEAN_MOTION_DOT":0.00014614,"MEAN_MOTION_DDOT":0},{"OBJECT_NAME":"LEMUR-2-SQUIRRELCOMM","OBJECT_ID":"2024-149DQ","EPOCH":"2026-03-03T18:43:10.468128","MEAN_MOTION":15.05760817,"ECCENTRICITY":0.0006238,"INCLINATION":97.6758,"RA_OF_ASC_NODE":144.1121,"ARG_OF_PERICENTER":59.049,"MEAN_ANOMALY":301.1349,"EPHEMERIS_TYPE":0,"CLASSIFICATION_TYPE":"U","NORAD_CAT_ID":60578,"ELEMENT_SET_NO":999,"REV_AT_EPOCH":8453,"BSTAR":0.00069994,"MEAN_MOTION_DOT":0.00010086,"MEAN_MOTION_DDOT":0},{"OBJECT_NAME":"LEMUR-2-SIERRINI","OBJECT_ID":"2024-149DR","EPOCH":"2026-03-03T18:33:04.336704","MEAN_MOTION":15.08478838,"ECCENTRICITY":0.0006119,"INCLINATION":97.6891,"RA_OF_ASC_NODE":145.0788,"ARG_OF_PERICENTER":168.0111,"MEAN_ANOMALY":192.1263,"EPHEMERIS_TYPE":0,"CLASSIFICATION_TYPE":"U","NORAD_CAT_ID":60579,"ELEMENT_SET_NO":999,"REV_AT_EPOCH":8455,"BSTAR":0.0011017,"MEAN_MOTION_DOT":0.00017142,"MEAN_MOTION_DDOT":0},{"OBJECT_NAME":"LEMUR-2-WILSON","OBJECT_ID":"2025-009CP","EPOCH":"2026-03-03T16:08:57.519744","MEAN_MOTION":14.94634286,"ECCENTRICITY":0.000389,"INCLINATION":97.7084,"RA_OF_ASC_NODE":143.0079,"ARG_OF_PERICENTER":49.1809,"MEAN_ANOMALY":310.9748,"EPHEMERIS_TYPE":0,"CLASSIFICATION_TYPE":"U","NORAD_CAT_ID":62694,"ELEMENT_SET_NO":999,"REV_AT_EPOCH":6159,"BSTAR":0.00030882,"MEAN_MOTION_DOT":3.289e-5,"MEAN_MOTION_DDOT":0},{"OBJECT_NAME":"LEMUR-2-STAR-FOX","OBJECT_ID":"2025-009CR","EPOCH":"2026-03-03T16:17:28.434912","MEAN_MOTION":15.00728449,"ECCENTRICITY":0.0002186,"INCLINATION":97.7064,"RA_OF_ASC_NODE":145.173,"ARG_OF_PERICENTER":164.6675,"MEAN_ANOMALY":195.4616,"EPHEMERIS_TYPE":0,"CLASSIFICATION_TYPE":"U","NORAD_CAT_ID":62696,"ELEMENT_SET_NO":999,"REV_AT_EPOCH":6172,"BSTAR":0.0010834,"MEAN_MOTION_DOT":0.00013691,"MEAN_MOTION_DDOT":0}]
