LEMUR-2-JK0903EM1407    
1 58336U 23174CJ  26062.71974998  .00033351  00000+0  67615-3 0  9994
2 58336  97.3929 150.6777 0006240 135.4353 224.7399 15.46300408129408
LEMUR-2-MJR092620       
1 58340U 23174CN  26062.73240052  .00016723  00000+0  39439-3 0  9995
2 58340  97.4001 151.0783 0008075 133.2007 226.9916 15.41938944129380
LEMUR-2-NIMBUS2000      
1 58899U 24022A   26062.57022439  .00022008  00000+0  61825-3 0  9993
2 58899  97.4230 271.4279 0010399 133.2157 226.9957 15.36492065116034
LEMUR-2-VALHALLA        
1 58900U 24022B   26062.54842939  .00021524  00000+0  60923-3 0  9998
2 58900  97.4228 271.4419 0011018 129.1710 231.0514 15.36254493116035
LEMUR-2-OBA-NI-JESU     
1 58902U 24022D   26062.52784031  .00115127  00000+0  12090-2 0  9990
2 58902  97.4070 280.2755 0005198  88.2727 271.9127 15.63960727116631
LEMUR-2-CAEL            
1 58903U 24022E   26062.51059115  .00020943  00000+0  57205-3 0  9997
2 58903  97.4214 272.1675 0009405 113.5647 246.6587 15.37386205116083
LEMUR-2-JOHNNYTRUONG    
1 59146U 24043BA  26062.40162236  .00041047  00000+0  66798-3 0  9992
2 59146  97.5247 208.2638 0005317 206.3385 153.7598 15.52544079111589
LEMUR-2-TOMATOKECHUP    
1 60471U 24149D   26062.75494005  .00015976  00000+0  49427-3 0  9994
2 60471  97.3858 144.6993 0000934 204.1627 155.9571 15.33567823 85991
LEMUR-2-STELLA          
1 60533U 24149BT  26062.76005698  .00016968  00000+0  10679-2 0  9998
2 60533  97.6789 144.9387 0001607  95.1253 265.0159 15.09265599 84584
LEMUR-2-MARHISYAM       
1 60536U 24149BW  26062.70576259  .00016823  00000+0  10718-2 0  9995
2 60536  97.6929 145.2179 0003259 121.7841 238.3705 15.08815013 84569
LEMUR-2-AHMED-ASRAR     
1 60576U 24149DN  26062.63723650  .00016167  00000+0  99259-3 0  9999
2 60576  97.7044 146.8537 0002145  39.0329 321.1054 15.10178871 84624
LEMUR-2-LLOYD           
1 60577U 24149DP  26062.75005345  .00014614  00000+0  97857-3 0  9994
2 60577  97.6809 143.9805 0005221 138.9222 221.2399 15.07000673 84507
LEMUR-2-SQUIRRELCOMM    
1 60578U 24149DQ  26062.77998227  .00010086  00000+0  69994-3 0  9997
2 60578  97.6758 144.1121 0006238  59.0490 301.1349 15.05760817 84531
LEMUR-2-SIERRINI        
1 60579U 24149DR  26062.77296686  .00017142  00000+0  11017-2 0  9990
2 60579  97.6891 145.0788 0006119 168.0111 192.1263 15.08478838 84555
LEMUR-2-WILSON          
1 62694U 25009CP  26062.67288796  .00003289  00000+0  30882-3 0  9997
2 62694  97.7084 143.0079 0003890  49.1809 310.9748 14.94634286 61599
LEMUR-2-STAR-FOX        
1 62696U 25009CR  26062.67880133  .00013691  00000+0  10834-2 0  9994
2 62696  97.7064 145.1730 0002186 164.6675 195.4616 15.00728449 61725
